{
  "type": "FeatureCollection",
  "features": [
    {
      "type": "Feature",
      "properties": {
        "OBJECT_NAME": "TIANMU-1 17",
        "OBJECT_ID": "2024-004C",
        "EPOCH": "2025-11-29T19:46:45.676992",
        "MEAN_MOTION": 15.24213614,
        "ECCENTRICITY": 0.0004611,
        "INCLINATION": 97.4608,
        "RA_OF_ASC_NODE": 155.1482,
        "ARG_OF_PERICENTER": 352.1957,
        "MEAN_ANOMALY": 7.9208,
        "EPHEMERIS_TYPE": 0,
        "CLASSIFICATION_TYPE": "U",
        "NORAD_CAT_ID": 58702,
        "ELEMENT_SET_NO": 999,
        "REV_AT_EPOCH": 10537,
        "BSTAR": 0.00027232,
        "MEAN_MOTION_DOT": 6.568e-05,
        "MEAN_MOTION_DDOT": 0,
        "norad_id": 58702,
        "name": "TIANMU-1 17",
        "group": "weather",
        "longitude_deg": NaN,
        "latitude_deg": NaN,
        "alt_km": NaN,
        "orbit_class": "HEO",
        "timestamp": "2025-11-30T07:29:52.854694+00:00"
      },
      "geometry": {
        "type": "Point",
        "coordinates": [
          NaN,
          NaN
        ]
      }
    },
    {
      "type": "Feature",
      "properties": {
        "OBJECT_NAME": "TIANMU-1 18",
        "OBJECT_ID": "2024-004D",
        "EPOCH": "2025-11-29T20:57:09.155232",
        "MEAN_MOTION": 15.24208107,
        "ECCENTRICITY": 0.0003957,
        "INCLINATION": 97.4625,
        "RA_OF_ASC_NODE": 155.3894,
        "ARG_OF_PERICENTER": 353.4245,
        "MEAN_ANOMALY": 6.694,
        "EPHEMERIS_TYPE": 0,
        "CLASSIFICATION_TYPE": "U",
        "NORAD_CAT_ID": 58703,
        "ELEMENT_SET_NO": 999,
        "REV_AT_EPOCH": 10538,
        "BSTAR": 0.00028074,
        "MEAN_MOTION_DOT": 6.772e-05,
        "MEAN_MOTION_DDOT": 0,
        "norad_id": 58703,
        "name": "TIANMU-1 18",
        "group": "weather",
        "longitude_deg": NaN,
        "latitude_deg": NaN,
        "alt_km": NaN,
        "orbit_class": "HEO",
        "timestamp": "2025-11-30T07:29:52.854701+00:00"
      },
      "geometry": {
        "type": "Point",
        "coordinates": [
          NaN,
          NaN
        ]
      }
    },
    {
      "type": "Feature",
      "properties": {
        "OBJECT_NAME": "INSAT-3DS",
        "OBJECT_ID": "2024-033A",
        "EPOCH": "2025-11-29T19:24:00.227808",
        "MEAN_MOTION": 1.00270377,
        "ECCENTRICITY": 0.0001452,
        "INCLINATION": 0.018,
        "RA_OF_ASC_NODE": 249.8634,
        "ARG_OF_PERICENTER": 359.7827,
        "MEAN_ANOMALY": 192.4349,
        "EPHEMERIS_TYPE": 0,
        "CLASSIFICATION_TYPE": "U",
        "NORAD_CAT_ID": 58990,
        "ELEMENT_SET_NO": 999,
        "REV_AT_EPOCH": 4506,
        "BSTAR": 0,
        "MEAN_MOTION_DOT": -1.35e-06,
        "MEAN_MOTION_DDOT": 0,
        "norad_id": 58990,
        "name": "INSAT-3DS",
        "group": "weather",
        "longitude_deg": NaN,
        "latitude_deg": NaN,
        "alt_km": NaN,
        "orbit_class": "HEO",
        "timestamp": "2025-11-30T07:29:52.856256+00:00"
      },
      "geometry": {
        "type": "Point",
        "coordinates": [
          NaN,
          NaN
        ]
      }
    },
    {
      "type": "Feature",
      "properties": {
        "OBJECT_NAME": "METEOR-M2 4",
        "OBJECT_ID": "2024-039A",
        "EPOCH": "2025-11-29T19:58:31.760256",
        "MEAN_MOTION": 14.22398022,
        "ECCENTRICITY": 0.0007706,
        "INCLINATION": 98.6749,
        "RA_OF_ASC_NODE": 290.9448,
        "ARG_OF_PERICENTER": 33.9982,
        "MEAN_ANOMALY": 326.1689,
        "EPHEMERIS_TYPE": 0,
        "CLASSIFICATION_TYPE": "U",
        "NORAD_CAT_ID": 59051,
        "ELEMENT_SET_NO": 999,
        "REV_AT_EPOCH": 9092,
        "BSTAR": 4.2424e-05,
        "MEAN_MOTION_DOT": 5.1e-07,
        "MEAN_MOTION_DDOT": 0,
        "norad_id": 59051,
        "name": "METEOR-M2 4",
        "group": "weather",
        "longitude_deg": NaN,
        "latitude_deg": NaN,
        "alt_km": NaN,
        "orbit_class": "HEO",
        "timestamp": "2025-11-30T07:29:52.856590+00:00"
      },
      "geometry": {
        "type": "Point",
        "coordinates": [
          NaN,
          NaN
        ]
      }
    },
    {
      "type": "Feature",
      "properties": {
        "OBJECT_NAME": "GOES 19",
        "OBJECT_ID": "2024-119A",
        "EPOCH": "2025-11-29T18:38:57.043968",
        "MEAN_MOTION": 1.00270024,
        "ECCENTRICITY": 0.0001169,
        "INCLINATION": 0.0207,
        "RA_OF_ASC_NODE": 133.5718,
        "ARG_OF_PERICENTER": 166.1039,
        "MEAN_ANOMALY": 333.8036,
        "EPHEMERIS_TYPE": 0,
        "CLASSIFICATION_TYPE": "U",
        "NORAD_CAT_ID": 60133,
        "ELEMENT_SET_NO": 999,
        "REV_AT_EPOCH": 496,
        "BSTAR": 0,
        "MEAN_MOTION_DOT": -2.27e-06,
        "MEAN_MOTION_DDOT": 0,
        "norad_id": 60133,
        "name": "GOES 19",
        "group": "weather",
        "longitude_deg": NaN,
        "latitude_deg": NaN,
        "alt_km": NaN,
        "orbit_class": "HEO",
        "timestamp": "2025-11-30T07:29:52.862939+00:00"
      },
      "geometry": {
        "type": "Point",
        "coordinates": [
          NaN,
          NaN
        ]
      }
    },
    {
      "type": "Feature",
      "properties": {
        "OBJECT_NAME": "FENGYUN 3H",
        "OBJECT_ID": "2025-219A",
        "EPOCH": "2025-11-29T19:59:58.337376",
        "MEAN_MOTION": 14.19898852,
        "ECCENTRICITY": 6.94e-05,
        "INCLINATION": 98.6565,
        "RA_OF_ASC_NODE": 273.7052,
        "ARG_OF_PERICENTER": 65.2177,
        "MEAN_ANOMALY": 294.9072,
        "EPHEMERIS_TYPE": 0,
        "CLASSIFICATION_TYPE": "U",
        "NORAD_CAT_ID": 65815,
        "ELEMENT_SET_NO": 999,
        "REV_AT_EPOCH": 909,
        "BSTAR": 7.1556e-05,
        "MEAN_MOTION_DOT": 1.09e-06,
        "MEAN_MOTION_DDOT": 0,
        "norad_id": 65815,
        "name": "FENGYUN 3H",
        "group": "weather",
        "longitude_deg": NaN,
        "latitude_deg": NaN,
        "alt_km": NaN,
        "orbit_class": "HEO",
        "timestamp": "2025-11-30T07:29:52.894145+00:00"
      },
      "geometry": {
        "type": "Point",
        "coordinates": [
          NaN,
          NaN
        ]
      }
    }
  ]
}