TIANMU-1 17             
1 58702U 24004C   25333.82413978  .00006568  00000+0  27232-3 0  9993
2 58702  97.4608 155.1482 0004611 352.1957   7.9208 15.24213614105379
TIANMU-1 18             
1 58703U 24004D   25333.87302263  .00006772  00000+0  28074-3 0  9995
2 58703  97.4625 155.3894 0003957 353.4245   6.6940 15.24208107105385
INSAT-3DS               
1 58990U 24033A   25333.80833597 -.00000135  00000+0  00000+0 0  9990
2 58990   0.0180 249.8634 0001452 359.7827 192.4349  1.00270377 45065
METEOR-M2 4             
1 59051U 24039A   25333.83231204  .00000051  00000+0  42424-4 0  9992
2 59051  98.6749 290.9448 0007706  33.9982 326.1689 14.22398022 90923
GOES 19                 
1 60133U 24119A   25333.77704912 -.00000227  00000+0  00000+0 0  9993
2 60133   0.0207 133.5718 0001169 166.1039 333.8036  1.00270024  4966
FENGYUN 3H              
1 65815U 25219A   25333.83331409  .00000109  00000+0  71556-4 0  9998
2 65815  98.6565 273.7052 0000694  65.2177 294.9072 14.19898852  9095
